CCSDS_OMM_VERS = 2.0
CREATION_DATE  = 
ORIGINATOR     = 

OBJECT_NAME    = STARLINK-36783
OBJECT_ID      = 2026-034Z
CENTER_NAME    = EARTH
REF_FRAME      = TEME
TIME_SYSTEM    = UTC
MEAN_ELEMENT_THEORY = SGP/SGP4

EPOCH          = 2026-03-04T10:00:01.999584
MEAN_MOTION    = 15.80788674
ECCENTRICITY   = .0001266
INCLINATION    = 53.1625
RA_OF_ASC_NODE = 237.5762
ARG_OF_PERICENTER = 113.0185
MEAN_ANOMALY   = 319.7471

EPHEMERIS_TYPE = 0
CLASSIFICATION_TYPE = U
NORAD_CAT_ID   = 67873
ELEMENT_SET_NO = 999
REV_AT_EPOCH   = 301
BSTAR          = .47148E-3
MEAN_MOTION_DOT = .92999E-3
MEAN_MOTION_DDOT = 0

CCSDS_OMM_VERS = 2.0
CREATION_DATE  = 
ORIGINATOR     = 

OBJECT_NAME    = STARLINK-36730
OBJECT_ID      = 2026-034AA
CENTER_NAME    = EARTH
REF_FRAME      = TEME
TIME_SYSTEM    = UTC
MEAN_ELEMENT_THEORY = SGP/SGP4

EPOCH          = 2026-03-04T10:00:01.999584
MEAN_MOTION    = 15.80774998
ECCENTRICITY   = .0001182
INCLINATION    = 53.1596
RA_OF_ASC_NODE = 237.5679
ARG_OF_PERICENTER = 69.0715
MEAN_ANOMALY   = 7.9744

EPHEMERIS_TYPE = 0
CLASSIFICATION_TYPE = U
NORAD_CAT_ID   = 67874
ELEMENT_SET_NO = 999
REV_AT_EPOCH   = 301
BSTAR          = .60513E-3
MEAN_MOTION_DOT = .119859E-2
MEAN_MOTION_DDOT = 0

CCSDS_OMM_VERS = 2.0
CREATION_DATE  = 
ORIGINATOR     = 

OBJECT_NAME    = STARLINK-36727
OBJECT_ID      = 2026-034AB
CENTER_NAME    = EARTH
REF_FRAME      = TEME
TIME_SYSTEM    = UTC
MEAN_ELEMENT_THEORY = SGP/SGP4

EPOCH          = 2026-03-04T10:00:01.999584
MEAN_MOTION    = 15.80842047
ECCENTRICITY   = .0001075
INCLINATION    = 53.1596
RA_OF_ASC_NODE = 237.5585
ARG_OF_PERICENTER = 94.9024
MEAN_ANOMALY   = 346.3635

EPHEMERIS_TYPE = 0
CLASSIFICATION_TYPE = U
NORAD_CAT_ID   = 67875
ELEMENT_SET_NO = 999
REV_AT_EPOCH   = 301
BSTAR          = .30904E-3
MEAN_MOTION_DOT = .60638E-3
MEAN_MOTION_DDOT = 0

CCSDS_OMM_VERS = 2.0
CREATION_DATE  = 
ORIGINATOR     = 

OBJECT_NAME    = STARLINK-36743
OBJECT_ID      = 2026-034AC
CENTER_NAME    = EARTH
REF_FRAME      = TEME
TIME_SYSTEM    = UTC
MEAN_ELEMENT_THEORY = SGP/SGP4

EPOCH          = 2026-03-04T10:00:01.999584
MEAN_MOTION    = 15.80799740
ECCENTRICITY   = .0001502
INCLINATION    = 53.1595
RA_OF_ASC_NODE = 237.5491
ARG_OF_PERICENTER = 137.6252
MEAN_ANOMALY   = 307.9646

EPHEMERIS_TYPE = 0
CLASSIFICATION_TYPE = U
NORAD_CAT_ID   = 67876
ELEMENT_SET_NO = 999
REV_AT_EPOCH   = 301
BSTAR          = .40969E-3
MEAN_MOTION_DOT = .80646E-3
MEAN_MOTION_DDOT = 0

CCSDS_OMM_VERS = 2.0
CREATION_DATE  = 
ORIGINATOR     = 

OBJECT_NAME    = STARLINK-36784
OBJECT_ID      = 2026-034AD
CENTER_NAME    = EARTH
REF_FRAME      = TEME
TIME_SYSTEM    = UTC
MEAN_ELEMENT_THEORY = SGP/SGP4

EPOCH          = 2026-03-04T10:00:01.999584
MEAN_MOTION    = 15.80871399
ECCENTRICITY   = .0000745
INCLINATION    = 53.1594
RA_OF_ASC_NODE = 237.5403
ARG_OF_PERICENTER = 93.2153
MEAN_ANOMALY   = 356.7450

EPHEMERIS_TYPE = 0
CLASSIFICATION_TYPE = U
NORAD_CAT_ID   = 67877
ELEMENT_SET_NO = 999
REV_AT_EPOCH   = 301
BSTAR          = -.77279E-3
MEAN_MOTION_DOT = -.150578E-2
MEAN_MOTION_DDOT = 0

CCSDS_OMM_VERS = 2.0
CREATION_DATE  = 
ORIGINATOR     = 

OBJECT_NAME    = STARLINK-36689
OBJECT_ID      = 2026-034AE
CENTER_NAME    = EARTH
REF_FRAME      = TEME
TIME_SYSTEM    = UTC
MEAN_ELEMENT_THEORY = SGP/SGP4

EPOCH          = 2026-03-04T10:00:01.999584
MEAN_MOTION    = 15.80801125
ECCENTRICITY   = .0001316
INCLINATION    = 53.1593
RA_OF_ASC_NODE = 237.5321
ARG_OF_PERICENTER = 76.5293
MEAN_ANOMALY   = 17.5905

EPHEMERIS_TYPE = 0
CLASSIFICATION_TYPE = U
NORAD_CAT_ID   = 67878
ELEMENT_SET_NO = 999
REV_AT_EPOCH   = 301
BSTAR          = .33197E-3
MEAN_MOTION_DOT = .65099E-3
MEAN_MOTION_DDOT = 0

CCSDS_OMM_VERS = 2.0
CREATION_DATE  = 
ORIGINATOR     = 

OBJECT_NAME    = STARLINK-36818
OBJECT_ID      = 2026-035A
CENTER_NAME    = EARTH
REF_FRAME      = TEME
TIME_SYSTEM    = UTC
MEAN_ELEMENT_THEORY = SGP/SGP4

EPOCH          = 2026-03-04T10:00:01.999584
MEAN_MOTION    = 15.98857491
ECCENTRICITY   = .0001232
INCLINATION    = 97.2780
RA_OF_ASC_NODE = 355.3387
ARG_OF_PERICENTER = 103.5056
MEAN_ANOMALY   = 93.0266

EPHEMERIS_TYPE = 0
CLASSIFICATION_TYPE = U
NORAD_CAT_ID   = 67879
ELEMENT_SET_NO = 999
REV_AT_EPOCH   = 290
BSTAR          = -.21899E-2
MEAN_MOTION_DOT = -.1037168E-1
MEAN_MOTION_DDOT = .34626E-3

CCSDS_OMM_VERS = 2.0
CREATION_DATE  = 
ORIGINATOR     = 

OBJECT_NAME    = STARLINK-36821
OBJECT_ID      = 2026-035B
CENTER_NAME    = EARTH
REF_FRAME      = TEME
TIME_SYSTEM    = UTC
MEAN_ELEMENT_THEORY = SGP/SGP4

EPOCH          = 2026-03-04T10:00:01.999584
MEAN_MOTION    = 15.99018346
ECCENTRICITY   = .0001231
INCLINATION    = 97.2776
RA_OF_ASC_NODE = 355.3415
ARG_OF_PERICENTER = 107.9729
MEAN_ANOMALY   = 94.9057

EPHEMERIS_TYPE = 0
CLASSIFICATION_TYPE = U
NORAD_CAT_ID   = 67880
ELEMENT_SET_NO = 999
REV_AT_EPOCH   = 290
BSTAR          = -.2165E-2
MEAN_MOTION_DOT = -.1034653E-1
MEAN_MOTION_DDOT = .34532E-3

CCSDS_OMM_VERS = 2.0
CREATION_DATE  = 
ORIGINATOR     = 

OBJECT_NAME    = STARLINK-36808
OBJECT_ID      = 2026-035C
CENTER_NAME    = EARTH
REF_FRAME      = TEME
TIME_SYSTEM    = UTC
MEAN_ELEMENT_THEORY = SGP/SGP4

EPOCH          = 2026-03-04T10:00:01.999584
MEAN_MOTION    = 15.98938097
ECCENTRICITY   = .0001596
INCLINATION    = 97.2777
RA_OF_ASC_NODE = 355.3396
ARG_OF_PERICENTER = 118.9808
MEAN_ANOMALY   = 79.9522

EPHEMERIS_TYPE = 0
CLASSIFICATION_TYPE = U
NORAD_CAT_ID   = 67881
ELEMENT_SET_NO = 999
REV_AT_EPOCH   = 290
BSTAR          = -.22362E-2
MEAN_MOTION_DOT = -.1063697E-1
MEAN_MOTION_DDOT = .36317E-3

CCSDS_OMM_VERS = 2.0
CREATION_DATE  = 
ORIGINATOR     = 

OBJECT_NAME    = STARLINK-36817
OBJECT_ID      = 2026-035D
CENTER_NAME    = EARTH
REF_FRAME      = TEME
TIME_SYSTEM    = UTC
MEAN_ELEMENT_THEORY = SGP/SGP4

EPOCH          = 2026-03-04T10:00:01.999584
MEAN_MOTION    = 15.99181969
ECCENTRICITY   = .0001211
INCLINATION    = 97.2769
RA_OF_ASC_NODE = 355.3444
ARG_OF_PERICENTER = 103.4190
MEAN_ANOMALY   = 107.1779

EPHEMERIS_TYPE = 0
CLASSIFICATION_TYPE = U
NORAD_CAT_ID   = 67882
ELEMENT_SET_NO = 999
REV_AT_EPOCH   = 290
BSTAR          = -.21714E-2
MEAN_MOTION_DOT = -.1047133E-1
MEAN_MOTION_DDOT = .35372E-3

CCSDS_OMM_VERS = 2.0
CREATION_DATE  = 
ORIGINATOR     = 

OBJECT_NAME    = STARLINK-36856
OBJECT_ID      = 2026-035E
CENTER_NAME    = EARTH
REF_FRAME      = TEME
TIME_SYSTEM    = UTC
MEAN_ELEMENT_THEORY = SGP/SGP4

EPOCH          = 2026-03-04T10:00:01.999584
MEAN_MOTION    = 15.99099474
ECCENTRICITY   = .0001139
INCLINATION    = 97.2773
RA_OF_ASC_NODE = 355.3431
ARG_OF_PERICENTER = 101.0817
MEAN_ANOMALY   = 105.9219

EPHEMERIS_TYPE = 0
CLASSIFICATION_TYPE = U
NORAD_CAT_ID   = 67883
ELEMENT_SET_NO = 999
REV_AT_EPOCH   = 290
BSTAR          = -.21467E-2
MEAN_MOTION_DOT = -.1030592E-1
MEAN_MOTION_DDOT = .34313E-3

CCSDS_OMM_VERS = 2.0
CREATION_DATE  = 
ORIGINATOR     = 

OBJECT_NAME    = STARLINK-36842
OBJECT_ID      = 2026-035F
CENTER_NAME    = EARTH
REF_FRAME      = TEME
TIME_SYSTEM    = UTC
MEAN_ELEMENT_THEORY = SGP/SGP4

EPOCH          = 2026-03-04T10:00:01.999584
MEAN_MOTION    = 15.99380909
ECCENTRICITY   = .0001276
INCLINATION    = 97.2768
RA_OF_ASC_NODE = 355.3459
ARG_OF_PERICENTER = 107.2946
MEAN_ANOMALY   = 106.6326

EPHEMERIS_TYPE = 0
CLASSIFICATION_TYPE = U
NORAD_CAT_ID   = 67884
ELEMENT_SET_NO = 999
REV_AT_EPOCH   = 290
BSTAR          = -.25813E-2
MEAN_MOTION_DOT = -.1256638E-1
MEAN_MOTION_DDOT = .4968E-3

