STARLINK-36783          
1 67873U 26034Z   26063.41668981  .00092999  00000+0  47148-3 0  9990
2 67873  53.1625 237.5762 0001266 113.0185 319.7471 15.80788674  3011
STARLINK-36730          
1 67874U 26034AA  26063.41668981  .00119859  00000+0  60513-3 0  9997
2 67874  53.1596 237.5679 0001182  69.0715   7.9744 15.80774998  3015
STARLINK-36727          
1 67875U 26034AB  26063.41668981  .00060638  00000+0  30904-3 0  9999
2 67875  53.1596 237.5585 0001075  94.9024 346.3635 15.80842047  3013
STARLINK-36743          
1 67876U 26034AC  26063.41668981  .00080646  00000+0  40969-3 0  9993
2 67876  53.1595 237.5491 0001502 137.6252 307.9646 15.80799740  3018
STARLINK-36784          
1 67877U 26034AD  26063.41668981 -.00150578  00000+0 -77279-3 0  9992
2 67877  53.1594 237.5403 0000745  93.2153 356.7450 15.80871399  3012
STARLINK-36689          
1 67878U 26034AE  26063.41668981  .00065099  00000+0  33197-3 0  9995
2 67878  53.1593 237.5321 0001316  76.5293  17.5905 15.80801125  3012
STARLINK-36818          
1 67879U 26035A   26063.41668981 -.01037168  34626-3 -21899-2 0  9996
2 67879  97.2780 355.3387 0001232 103.5056  93.0266 15.98857491  2908
STARLINK-36821          
1 67880U 26035B   26063.41668981 -.01034653  34532-3 -21650-2 0  9995
2 67880  97.2776 355.3415 0001231 107.9729  94.9057 15.99018346  2908
STARLINK-36808          
1 67881U 26035C   26063.41668981 -.01063697  36317-3 -22362-2 0  9990
2 67881  97.2777 355.3396 0001596 118.9808  79.9522 15.98938097  2905
STARLINK-36817          
1 67882U 26035D   26063.41668981 -.01047133  35372-3 -21714-2 0  9998
2 67882  97.2769 355.3444 0001211 103.4190 107.1779 15.99181969  2905
STARLINK-36856          
1 67883U 26035E   26063.41668981 -.01030592  34313-3 -21467-2 0  9999
2 67883  97.2773 355.3431 0001139 101.0817 105.9219 15.99099474  2900
STARLINK-36842          
1 67884U 26035F   26063.41668981 -.01256638  49680-3 -25813-2 0  9993
2 67884  97.2768 355.3459 0001276 107.2946 106.6326 15.99380909  2901
